STARLINK-1012
1 14718C 19074F   21326.15675593  .00005121  00000-0  34309-3 0  3265
2 14718  53.0546  28.0400 0001149  58.2390 199.5589 15.06399636    10
